start=new Date('2022-04-15T00:00:00.000Z').valueOf();
sats=[{"CLASSIFICATION_TYPE":"U","APOAPSIS":"548.228","MEAN_ELEMENT_THEORY":"SGP4","SEMIMAJOR_AXIS":"6925.325","OBJECT_TYPE":"PAYLOAD","EPOCH":"2022-04-14T13:50:18.312576","PERIAPSIS":"546.152","DECAY_DATE":null,"TLE_LINE1":"1 48557U 21041E   22104.57660084  .00004415  00000-0  31504-3 0  9992","REV_AT_EPOCH":"5040","COUNTRY_CODE":"US","BSTAR":"0.00031504000000","ECCENTRICITY":"0.00014990","ELEMENT_SET_NO":"999","EPHEMERIS_TYPE":"0","PERIOD":"95.592","TIME_SYSTEM":"UTC","LAUNCH_DATE":"2021-05-15","SITE":"AFETR","ARG_OF_PERICENTER":"69.2643","TLE_LINE2":"2 48557  53.0553  49.2115 0001499  69.2643 290.8507 15.06407813 50402","FILE":"3401567","REF_FRAME":"TEME","MEAN_MOTION_DOT":"0.00004415","RCS_SIZE":"LARGE","CENTER_NAME":"EARTH","GP_ID":"201222966","MEAN_ANOMALY":"290.8507","MEAN_MOTION_DDOT":"0.0000000000000","NORAD_CAT_ID":"48557","INCLINATION":"53.0553","MEAN_MOTION":"15.06407813","OBJECT_NAME":"STARLINK-2155","RA_OF_ASC_NODE":"49.2115","OBJECT_ID":"2021-041E"},{"PERIOD":"95.591","TIME_SYSTEM":"UTC","EPHEMERIS_TYPE":"0","ECCENTRICITY":"0.00014200","ELEMENT_SET_NO":"999","TLE_LINE1":"1 48558U 21041F   22104.57291725  .00005290  00000-0  37362-3 0  9995","BSTAR":"0.00037362000000","COUNTRY_CODE":"US","REV_AT_EPOCH":"5080","DECAY_DATE":null,"PERIAPSIS":"546.196","OBJECT_TYPE":"PAYLOAD","EPOCH":"2022-04-14T13:45:00.050400","SEMIMAJOR_AXIS":"6925.314","APOAPSIS":"548.163","MEAN_ELEMENT_THEORY":"SGP4","CLASSIFICATION_TYPE":"U","OBJECT_ID":"2021-041F","OBJECT_NAME":"STARLINK-2166","RA_OF_ASC_NODE":"49.2179","MEAN_MOTION":"15.06411136","NORAD_CAT_ID":"48558","INCLINATION":"53.0547","MEAN_MOTION_DDOT":"0.0000000000000","MEAN_ANOMALY":"289.0138","GP_ID":"201231168","CENTER_NAME":"EARTH","RCS_SIZE":"LARGE","MEAN_MOTION_DOT":"0.00005290","REF_FRAME":"TEME","FILE":"3401740","SITE":"AFETR","ARG_OF_PERICENTER":"71.1005","TLE_LINE2":"2 48558  53.0547  49.2179 0001420  71.1005 289.0138 15.06411136 50801","LAUNCH_DATE":"2021-05-15"},{"EPOCH":"2022-04-14T13:01:10.354944","OBJECT_TYPE":"PAYLOAD","CLASSIFICATION_TYPE":"U","APOAPSIS":"548.403","MEAN_ELEMENT_THEORY":"SGP4","SEMIMAJOR_AXIS":"6925.374","ECCENTRICITY":"0.00016810","ELEMENT_SET_NO":"999","EPHEMERIS_TYPE":"0","TIME_SYSTEM":"UTC","PERIOD":"95.593","PERIAPSIS":"546.075","DECAY_DATE":null,"COUNTRY_CODE":"US","REV_AT_EPOCH":"5039","BSTAR":"0.00009747600000","TLE_LINE1":"1 48559U 21041G   22104.54248096  .00001170  00000-0  97476-4 0  9992","REF_FRAME":"TEME","MEAN_MOTION_DOT":"0.00001170","RCS_SIZE":"LARGE","CENTER_NAME":"EARTH","GP_ID":"201223968","LAUNCH_DATE":"2021-05-15","ARG_OF_PERICENTER":"59.1544","TLE_LINE2":"2 48559  53.0560  49.3431 0001681  59.1544 300.9610 15.06391741 50393","SITE":"AFETR","FILE":"3401567","OBJECT_NAME":"STARLINK-2167","RA_OF_ASC_NODE":"49.3431","MEAN_MOTION":"15.06391741","OBJECT_ID":"2021-041G","MEAN_ANOMALY":"300.9610","MEAN_MOTION_DDOT":"0.0000000000000","INCLINATION":"53.0560","NORAD_CAT_ID":"48559"},{"EPOCH":"2022-04-14T22:00:00.999936","OBJECT_TYPE":"PAYLOAD","SEMIMAJOR_AXIS":"6925.335","MEAN_ELEMENT_THEORY":"SGP4","APOAPSIS":"548.201","CLASSIFICATION_TYPE":"U","TIME_SYSTEM":"UTC","PERIOD":"95.592","EPHEMERIS_TYPE":"0","ECCENTRICITY":"0.00014450","ELEMENT_SET_NO":"999","REV_AT_EPOCH":"360","COUNTRY_CODE":"US","BSTAR":"-0.00099241000000","TLE_LINE1":"1 48561U 21041J   22104.91667824 -.00015034  00000-0 -99241-3 0  9997","DECAY_DATE":null,"PERIAPSIS":"546.200","CENTER_NAME":"EARTH","GP_ID":"201256957","RCS_SIZE":"LARGE","MEAN_MOTION_DOT":"-0.00015034","REF_FRAME":"TEME","FILE":"3401977","TLE_LINE2":"2 48561  53.0547  17.6771 0001445  85.5416 209.9112 15.06404324  3604","ARG_OF_PERICENTER":"85.5416","SITE":"AFETR","LAUNCH_DATE":"2021-05-15","OBJECT_ID":"2021-041J","OBJECT_NAME":"STARLINK-2186","MEAN_MOTION":"15.06404324","RA_OF_ASC_NODE":"17.6771","INCLINATION":"53.0547","NORAD_CAT_ID":"48561","MEAN_MOTION_DDOT":"0.0000000000000","MEAN_ANOMALY":"209.9112"},{"OBJECT_TYPE":"PAYLOAD","EPOCH":"2022-04-14T13:13:10.263936","APOAPSIS":"548.303","MEAN_ELEMENT_THEORY":"SGP4","SEMIMAJOR_AXIS":"6925.337","CLASSIFICATION_TYPE":"U","EPHEMERIS_TYPE":"0","PERIOD":"95.592","TIME_SYSTEM":"UTC","ELEMENT_SET_NO":"999","ECCENTRICITY":"0.00015900","TLE_LINE1":"1 48562U 21041K   22104.55081324  .00005898  00000-0  41444-3 0  9990","REV_AT_EPOCH":"5080","COUNTRY_CODE":"US","BSTAR":"0.00041444000000","PERIAPSIS":"546.100","DECAY_DATE":null,"RCS_SIZE":"LARGE","GP_ID":"201197899","CENTER_NAME":"EARTH","REF_FRAME":"TEME","MEAN_MOTION_DOT":"0.00005898","SITE":"AFETR","ARG_OF_PERICENTER":"77.2505","TLE_LINE2":"2 48562  53.0550  49.3183 0001590  77.2505 282.8662 15.06403931 50803","FILE":"3401363","LAUNCH_DATE":"2021-05-15","OBJECT_ID":"2021-041K","OBJECT_NAME":"STARLINK-2187","MEAN_MOTION":"15.06403931","RA_OF_ASC_NODE":"49.3183","MEAN_MOTION_DDOT":"0.0000000000000","NORAD_CAT_ID":"48562","INCLINATION":"53.0550","MEAN_ANOMALY":"282.8662"},{"TLE_LINE2":"2 48563  53.0570  49.2441 0001685  63.3827 296.7334 15.06389356 50859","ARG_OF_PERICENTER":"63.3827","SITE":"AFETR","FILE":"3401748","LAUNCH_DATE":"2021-05-15","RCS_SIZE":"LARGE","CENTER_NAME":"EARTH","GP_ID":"201231763","REF_FRAME":"TEME","MEAN_MOTION_DOT":"0.00003672","MEAN_MOTION_DDOT":"0.0000000000000","INCLINATION":"53.0570","NORAD_CAT_ID":"48563","MEAN_ANOMALY":"296.7334","OBJECT_ID":"2021-041L","OBJECT_NAME":"STARLINK-2188","RA_OF_ASC_NODE":"49.2441","MEAN_MOTION":"15.06389356","APOAPSIS":"548.413","MEAN_ELEMENT_THEORY":"SGP4","SEMIMAJOR_AXIS":"6925.381","CLASSIFICATION_TYPE":"U","EPOCH":"2022-04-14T13:39:41.818464","OBJECT_TYPE":"PAYLOAD","BSTAR":"0.00026538000000","COUNTRY_CODE":"US","REV_AT_EPOCH":"5085","TLE_LINE1":"1 48563U 21041L   22104.56923401  .00003672  00000-0  26538-3 0  9998","PERIAPSIS":"546.079","DECAY_DATE":null,"EPHEMERIS_TYPE":"0","TIME_SYSTEM":"UTC","PERIOD":"95.593","ELEMENT_SET_NO":"999","ECCENTRICITY":"0.00016850"},{"MEAN_ANOMALY":"291.4635","MEAN_MOTION_DDOT":"0.0000000000000","INCLINATION":"53.0545","NORAD_CAT_ID":"48564","MEAN_MOTION":"15.06427992","OBJECT_NAME":"STARLINK-2190","RA_OF_ASC_NODE":"50.7644","OBJECT_ID":"2021-041M","LAUNCH_DATE":"2021-05-15","ARG_OF_PERICENTER":"68.6498","TLE_LINE2":"2 48564  53.0545  50.7644 0001349  68.6498 291.4635 15.06427992 50353","SITE":"AFETR","FILE":"3401567","REF_FRAME":"TEME","MEAN_MOTION_DOT":"0.00012944","RCS_SIZE":"LARGE","CENTER_NAME":"EARTH","GP_ID":"201224469","PERIAPSIS":"546.194","DECAY_DATE":null,"COUNTRY_CODE":"US","REV_AT_EPOCH":"5035","BSTAR":"0.00088559000000","TLE_LINE1":"1 48564U 21041M   22104.23012316  .00012944  00000-0  88559-3 0  9990","ECCENTRICITY":"0.00013490","ELEMENT_SET_NO":"999","EPHEMERIS_TYPE":"0","TIME_SYSTEM":"UTC","PERIOD":"95.590","CLASSIFICATION_TYPE":"U","APOAPSIS":"548.062","MEAN_ELEMENT_THEORY":"SGP4","SEMIMAJOR_AXIS":"6925.263","EPOCH":"2022-04-14T05:31:22.641024","OBJECT_TYPE":"PAYLOAD"},{"MEAN_ANOMALY":"281.6398","NORAD_CAT_ID":"48565","INCLINATION":"53.0552","MEAN_MOTION_DDOT":"0.0000000000000","OBJECT_NAME":"STARLINK-2191","RA_OF_ASC_NODE":"49.2898","MEAN_MOTION":"15.06399525","OBJECT_ID":"2021-041N","LAUNCH_DATE":"2021-05-15","FILE":"3401567","SITE":"AFETR","TLE_LINE2":"2 48565  53.0552  49.2898 0001488  78.4758 281.6398 15.06399525 50401","ARG_OF_PERICENTER":"78.4758","MEAN_MOTION_DOT":"0.00002961","REF_FRAME":"TEME","GP_ID":"201224219","CENTER_NAME":"EARTH","RCS_SIZE":"LARGE","DECAY_DATE":null,"PERIAPSIS":"546.185","TLE_LINE1":"1 48565U 21041N   22104.55817396  .00002961  00000-0  21759-3 0  9994","BSTAR":"0.00021759000000","COUNTRY_CODE":"US","REV_AT_EPOCH":"5040","ECCENTRICITY":"0.00014880","ELEMENT_SET_NO":"999","PERIOD":"95.592","TIME_SYSTEM":"UTC","EPHEMERIS_TYPE":"0","CLASSIFICATION_TYPE":"U","SEMIMAJOR_AXIS":"6925.350","MEAN_ELEMENT_THEORY":"SGP4","APOAPSIS":"548.246","OBJECT_TYPE":"PAYLOAD","EPOCH":"2022-04-14T13:23:46.230144"},{"ECCENTRICITY":"0.00014620","ELEMENT_SET_NO":"999","EPHEMERIS_TYPE":"0","TIME_SYSTEM":"UTC","PERIOD":"95.591","PERIAPSIS":"546.150","DECAY_DATE":null,"BSTAR":"0.00046535000000","COUNTRY_CODE":"US","REV_AT_EPOCH":"5026","TLE_LINE1":"1 48566U 21041P   22104.58210104  .00006660  00000-0  46535-3 0  9991","EPOCH":"2022-04-14T13:58:13.529856","OBJECT_TYPE":"PAYLOAD","CLASSIFICATION_TYPE":"U","APOAPSIS":"548.175","MEAN_ELEMENT_THEORY":"SGP4","SEMIMAJOR_AXIS":"6925.298","RA_OF_ASC_NODE":"59.1773","OBJECT_NAME":"STARLINK-2214","MEAN_MOTION":"15.06416554","OBJECT_ID":"2021-041P","MEAN_ANOMALY":"296.3829","MEAN_MOTION_DDOT":"0.0000000000000","INCLINATION":"53.0538","NORAD_CAT_ID":"48566","REF_FRAME":"TEME","MEAN_MOTION_DOT":"0.00006660","RCS_SIZE":"MEDIUM","CENTER_NAME":"EARTH","GP_ID":"201255706","LAUNCH_DATE":"2021-05-15","TLE_LINE2":"2 48566  53.0538  59.1773 0001462  63.7310 296.3829 15.06416554 50269","ARG_OF_PERICENTER":"63.7310","SITE":"AFETR","FILE":"3401977"},{"DECAY_DATE":null,"PERIAPSIS":"546.287","COUNTRY_CODE":"US","BSTAR":"0.00025963000000","REV_AT_EPOCH":"5026","TLE_LINE1":"1 48567U 21041Q   22104.59411499  .00003587  00000-0  25963-3 0  9990","ECCENTRICITY":"0.00013530","ELEMENT_SET_NO":"999","TIME_SYSTEM":"UTC","PERIOD":"95.592","EPHEMERIS_TYPE":"0","CLASSIFICATION_TYPE":"U","SEMIMAJOR_AXIS":"6925.359","APOAPSIS":"548.161","MEAN_ELEMENT_THEORY":"SGP4","EPOCH":"2022-04-14T14:15:31.535136","OBJECT_TYPE":"PAYLOAD","MEAN_ANOMALY":"299.6290","INCLINATION":"53.0565","NORAD_CAT_ID":"48567","MEAN_MOTION_DDOT":"0.0000000000000","MEAN_MOTION":"15.06396584","RA_OF_ASC_NODE":"59.1187","OBJECT_NAME":"STARLINK-2215","OBJECT_ID":"2021-041Q","LAUNCH_DATE":"2021-05-15","FILE":"3401977","ARG_OF_PERICENTER":"60.4834","TLE_LINE2":"2 48567  53.0565  59.1187 0001353  60.4834 299.6290 15.06396584 50261","SITE":"AFETR","MEAN_MOTION_DOT":"0.00003587","REF_FRAME":"TEME","CENTER_NAME":"EARTH","GP_ID":"201255956","RCS_SIZE":"LARGE"}];
